SDA_1673                
1 65983U 25230K   25316.88015173  .00000331  00000+0  27970-3 0  9997
2 65983  81.3034  52.2761 0005088  94.3099 265.8640 13.85557322  3870
SDA_1674                
1 65984U 25230L   25316.88332773  .00000329  00000+0  27884-3 0  9997
2 65984  81.3025  52.2745 0004892  85.9410 274.2307 13.85398617  3872
SDA_1675                
1 65985U 25230M   25316.89682254  .00000343  00000+0  29462-3 0  9991
2 65985  81.3002  52.2866 0003201  47.1548 312.9878 13.84727541  3871
SDA_1676                
1 65986U 25230N   25316.89984806  .00000392  00000+0  33876-3 0  9998
2 65986  81.3032  52.2990 0002439  38.5183 321.6147 13.84577728  3870
SDA_1677                
1 65987U 25230P   25316.89812046  .00000390  00000+0  33656-3 0  9999
2 65987  81.3005  52.2900 0002797  43.2675 316.8701 13.84663477  3877
SDA_1678                
1 65988U 25230Q   25316.88103904  .00000351  00000+0  29710-3 0  9998
2 65988  81.3037  52.2791 0004983  92.2590 267.9138 13.85512502  3873
SDA_1679                
1 65989U 25230R   25316.88508620  .00000311  00000+0  26364-3 0  9991
2 65989  81.3035  52.2846 0005096  81.0294 279.1440 13.85311159  3872
SDA_1680                
1 65990U 25230S   25316.88752836  .00000317  00000+0  26900-3 0  9995
2 65990  81.3026  52.2816 0004876  73.9891 286.1803 13.85189958  3870
SDA_1681                
1 65991U 25230T   25316.88592052  .00000358  00000+0  30488-3 0  9999
2 65991  81.3025  52.2777 0004990  78.4947 281.6770 13.85270182  3878
SDA_1682                
1 65992U 25230U   25316.89467040  .00000352  00000+0  30206-3 0  9991
2 65992  81.3052  52.2987 0003442  53.1512 306.9960 13.84834526  3870
SDA_1683                
1 65993U 25230V   25316.89305012  .00000364  00000+0  31168-3 0  9993
2 65993  81.3042  52.2935 0003787  55.7160 304.4356 13.84915729  3879
SDA_1684                
1 65994U 25230W   25316.89596238  .00000346  00000+0  29687-3 0  9999
2 65994  81.3026  52.2926 0003535  42.8100 317.3332 13.84770433  3872
