CCSDS_OMM_VERS = 2.0
CREATION_DATE  = 
ORIGINATOR     = 

OBJECT_NAME    = SDA_1673
OBJECT_ID      = 2025-230K
CENTER_NAME    = EARTH
REF_FRAME      = TEME
TIME_SYSTEM    = UTC
MEAN_ELEMENT_THEORY = SGP/SGP4

EPOCH          = 2025-11-12T21:07:25.109472
MEAN_MOTION    = 13.85557322
ECCENTRICITY   = .00050887
INCLINATION    = 81.3034
RA_OF_ASC_NODE = 52.2761
ARG_OF_PERICENTER = 94.3099
MEAN_ANOMALY   = 265.8640

EPHEMERIS_TYPE = 0
CLASSIFICATION_TYPE = U
NORAD_CAT_ID   = 65983
ELEMENT_SET_NO = 999
REV_AT_EPOCH   = 387
BSTAR          = .27969729E-3
MEAN_MOTION_DOT = .331E-5
MEAN_MOTION_DDOT = 0

CCSDS_OMM_VERS = 2.0
CREATION_DATE  = 
ORIGINATOR     = 

OBJECT_NAME    = SDA_1674
OBJECT_ID      = 2025-230L
CENTER_NAME    = EARTH
REF_FRAME      = TEME
TIME_SYSTEM    = UTC
MEAN_ELEMENT_THEORY = SGP/SGP4

EPOCH          = 2025-11-12T21:11:59.515872
MEAN_MOTION    = 13.85398617
ECCENTRICITY   = .0004892
INCLINATION    = 81.3025
RA_OF_ASC_NODE = 52.2745
ARG_OF_PERICENTER = 85.9410
MEAN_ANOMALY   = 274.2307

EPHEMERIS_TYPE = 0
CLASSIFICATION_TYPE = U
NORAD_CAT_ID   = 65984
ELEMENT_SET_NO = 999
REV_AT_EPOCH   = 387
BSTAR          = .27884243E-3
MEAN_MOTION_DOT = .329E-5
MEAN_MOTION_DDOT = 0

CCSDS_OMM_VERS = 2.0
CREATION_DATE  = 
ORIGINATOR     = 

OBJECT_NAME    = SDA_1675
OBJECT_ID      = 2025-230M
CENTER_NAME    = EARTH
REF_FRAME      = TEME
TIME_SYSTEM    = UTC
MEAN_ELEMENT_THEORY = SGP/SGP4

EPOCH          = 2025-11-12T21:31:25.467456
MEAN_MOTION    = 13.84727541
ECCENTRICITY   = .00032019
INCLINATION    = 81.3002
RA_OF_ASC_NODE = 52.2866
ARG_OF_PERICENTER = 47.1548
MEAN_ANOMALY   = 312.9878

EPHEMERIS_TYPE = 0
CLASSIFICATION_TYPE = U
NORAD_CAT_ID   = 65985
ELEMENT_SET_NO = 999
REV_AT_EPOCH   = 387
BSTAR          = .29461744E-3
MEAN_MOTION_DOT = .343E-5
MEAN_MOTION_DDOT = 0

CCSDS_OMM_VERS = 2.0
CREATION_DATE  = 
ORIGINATOR     = 

OBJECT_NAME    = SDA_1676
OBJECT_ID      = 2025-230N
CENTER_NAME    = EARTH
REF_FRAME      = TEME
TIME_SYSTEM    = UTC
MEAN_ELEMENT_THEORY = SGP/SGP4

EPOCH          = 2025-11-12T21:35:46.872384
MEAN_MOTION    = 13.84577728
ECCENTRICITY   = .00024393
INCLINATION    = 81.3032
RA_OF_ASC_NODE = 52.2990
ARG_OF_PERICENTER = 38.5183
MEAN_ANOMALY   = 321.6147

EPHEMERIS_TYPE = 0
CLASSIFICATION_TYPE = U
NORAD_CAT_ID   = 65986
ELEMENT_SET_NO = 999
REV_AT_EPOCH   = 387
BSTAR          = .33876327E-3
MEAN_MOTION_DOT = .392E-5
MEAN_MOTION_DDOT = 0

CCSDS_OMM_VERS = 2.0
CREATION_DATE  = 
ORIGINATOR     = 

OBJECT_NAME    = SDA_1677
OBJECT_ID      = 2025-230P
CENTER_NAME    = EARTH
REF_FRAME      = TEME
TIME_SYSTEM    = UTC
MEAN_ELEMENT_THEORY = SGP/SGP4

EPOCH          = 2025-11-12T21:33:17.607744
MEAN_MOTION    = 13.84663477
ECCENTRICITY   = .00027971
INCLINATION    = 81.3005
RA_OF_ASC_NODE = 52.2900
ARG_OF_PERICENTER = 43.2675
MEAN_ANOMALY   = 316.8701

EPHEMERIS_TYPE = 0
CLASSIFICATION_TYPE = U
NORAD_CAT_ID   = 65987
ELEMENT_SET_NO = 999
REV_AT_EPOCH   = 387
BSTAR          = .33655934E-3
MEAN_MOTION_DOT = .39E-5
MEAN_MOTION_DDOT = 0

CCSDS_OMM_VERS = 2.0
CREATION_DATE  = 
ORIGINATOR     = 

OBJECT_NAME    = SDA_1678
OBJECT_ID      = 2025-230Q
CENTER_NAME    = EARTH
REF_FRAME      = TEME
TIME_SYSTEM    = UTC
MEAN_ELEMENT_THEORY = SGP/SGP4

EPOCH          = 2025-11-12T21:08:41.773056
MEAN_MOTION    = 13.85512502
ECCENTRICITY   = .00049835
INCLINATION    = 81.3037
RA_OF_ASC_NODE = 52.2791
ARG_OF_PERICENTER = 92.2590
MEAN_ANOMALY   = 267.9138

EPHEMERIS_TYPE = 0
CLASSIFICATION_TYPE = U
NORAD_CAT_ID   = 65988
ELEMENT_SET_NO = 999
REV_AT_EPOCH   = 387
BSTAR          = .29710296E-3
MEAN_MOTION_DOT = .351E-5
MEAN_MOTION_DDOT = 0

CCSDS_OMM_VERS = 2.0
CREATION_DATE  = 
ORIGINATOR     = 

OBJECT_NAME    = SDA_1679
OBJECT_ID      = 2025-230R
CENTER_NAME    = EARTH
REF_FRAME      = TEME
TIME_SYSTEM    = UTC
MEAN_ELEMENT_THEORY = SGP/SGP4

EPOCH          = 2025-11-12T21:14:31.447680
MEAN_MOTION    = 13.85311159
ECCENTRICITY   = .00050962
INCLINATION    = 81.3035
RA_OF_ASC_NODE = 52.2846
ARG_OF_PERICENTER = 81.0294
MEAN_ANOMALY   = 279.1440

EPHEMERIS_TYPE = 0
CLASSIFICATION_TYPE = U
NORAD_CAT_ID   = 65989
ELEMENT_SET_NO = 999
REV_AT_EPOCH   = 387
BSTAR          = .26364412E-3
MEAN_MOTION_DOT = .311E-5
MEAN_MOTION_DDOT = 0

CCSDS_OMM_VERS = 2.0
CREATION_DATE  = 
ORIGINATOR     = 

OBJECT_NAME    = SDA_1680
OBJECT_ID      = 2025-230S
CENTER_NAME    = EARTH
REF_FRAME      = TEME
TIME_SYSTEM    = UTC
MEAN_ELEMENT_THEORY = SGP/SGP4

EPOCH          = 2025-11-12T21:18:02.450304
MEAN_MOTION    = 13.85189958
ECCENTRICITY   = .00048767
INCLINATION    = 81.3026
RA_OF_ASC_NODE = 52.2816
ARG_OF_PERICENTER = 73.9891
MEAN_ANOMALY   = 286.1803

EPHEMERIS_TYPE = 0
CLASSIFICATION_TYPE = U
NORAD_CAT_ID   = 65990
ELEMENT_SET_NO = 999
REV_AT_EPOCH   = 387
BSTAR          = .26900086E-3
MEAN_MOTION_DOT = .317E-5
MEAN_MOTION_DDOT = 0

CCSDS_OMM_VERS = 2.0
CREATION_DATE  = 
ORIGINATOR     = 

OBJECT_NAME    = SDA_1681
OBJECT_ID      = 2025-230T
CENTER_NAME    = EARTH
REF_FRAME      = TEME
TIME_SYSTEM    = UTC
MEAN_ELEMENT_THEORY = SGP/SGP4

EPOCH          = 2025-11-12T21:15:43.532928
MEAN_MOTION    = 13.85270182
ECCENTRICITY   = .00049908
INCLINATION    = 81.3025
RA_OF_ASC_NODE = 52.2777
ARG_OF_PERICENTER = 78.4947
MEAN_ANOMALY   = 281.6770

EPHEMERIS_TYPE = 0
CLASSIFICATION_TYPE = U
NORAD_CAT_ID   = 65991
ELEMENT_SET_NO = 999
REV_AT_EPOCH   = 387
BSTAR          = .30488317E-3
MEAN_MOTION_DOT = .358E-5
MEAN_MOTION_DDOT = 0

CCSDS_OMM_VERS = 2.0
CREATION_DATE  = 
ORIGINATOR     = 

OBJECT_NAME    = SDA_1682
OBJECT_ID      = 2025-230U
CENTER_NAME    = EARTH
REF_FRAME      = TEME
TIME_SYSTEM    = UTC
MEAN_ELEMENT_THEORY = SGP/SGP4

EPOCH          = 2025-11-12T21:28:19.522560
MEAN_MOTION    = 13.84834526
ECCENTRICITY   = .00034428
INCLINATION    = 81.3052
RA_OF_ASC_NODE = 52.2987
ARG_OF_PERICENTER = 53.1512
MEAN_ANOMALY   = 306.9960

EPHEMERIS_TYPE = 0
CLASSIFICATION_TYPE = U
NORAD_CAT_ID   = 65992
ELEMENT_SET_NO = 999
REV_AT_EPOCH   = 387
BSTAR          = .30206338E-3
MEAN_MOTION_DOT = .352E-5
MEAN_MOTION_DDOT = 0

CCSDS_OMM_VERS = 2.0
CREATION_DATE  = 
ORIGINATOR     = 

OBJECT_NAME    = SDA_1683
OBJECT_ID      = 2025-230V
CENTER_NAME    = EARTH
REF_FRAME      = TEME
TIME_SYSTEM    = UTC
MEAN_ELEMENT_THEORY = SGP/SGP4

EPOCH          = 2025-11-12T21:25:59.530368
MEAN_MOTION    = 13.84915729
ECCENTRICITY   = .00037879
INCLINATION    = 81.3042
RA_OF_ASC_NODE = 52.2935
ARG_OF_PERICENTER = 55.7160
MEAN_ANOMALY   = 304.4356

EPHEMERIS_TYPE = 0
CLASSIFICATION_TYPE = U
NORAD_CAT_ID   = 65993
ELEMENT_SET_NO = 999
REV_AT_EPOCH   = 387
BSTAR          = .31168073E-3
MEAN_MOTION_DOT = .364E-5
MEAN_MOTION_DDOT = 0

CCSDS_OMM_VERS = 2.0
CREATION_DATE  = 
ORIGINATOR     = 

OBJECT_NAME    = SDA_1684
OBJECT_ID      = 2025-230W
CENTER_NAME    = EARTH
REF_FRAME      = TEME
TIME_SYSTEM    = UTC
MEAN_ELEMENT_THEORY = SGP/SGP4

EPOCH          = 2025-11-12T21:30:11.149632
MEAN_MOTION    = 13.84770433
ECCENTRICITY   = .00035356
INCLINATION    = 81.3026
RA_OF_ASC_NODE = 52.2926
ARG_OF_PERICENTER = 42.8100
MEAN_ANOMALY   = 317.3332

EPHEMERIS_TYPE = 0
CLASSIFICATION_TYPE = U
NORAD_CAT_ID   = 65994
ELEMENT_SET_NO = 999
REV_AT_EPOCH   = 387
BSTAR          = .29687248E-3
MEAN_MOTION_DOT = .346E-5
MEAN_MOTION_DDOT = 0

